LEMUR-2-PETERG          
1 42841U 17042S   26068.48235713  .00023240  00000+0  81076-3 0  9993
2 42841  97.3980 253.6596 0003700 341.6938  18.4169 15.29611459473171
STARLINK-35925          
1 66887U 25283K   26068.30290063  .00015542  00000+0  53593-3 0  9994
2 66887  53.1612  26.0581 0000919  75.3688 284.7414 15.30190280 15783
